[{"OBJECT_NAME":"KUIPER-00103","OBJECT_ID":"2025-171K","EPOCH":"2026-03-09T11:52:55.185888","MEAN_MOTION":14.799441,"ECCENTRICITY":0.00014863,"INCLINATION":51.8976,"RA_OF_ASC_NODE":171.4297,"ARG_OF_PERICENTER":136.3523,"MEAN_ANOMALY":223.7557,"EPHEMERIS_TYPE":0,"CLASSIFICATION_TYPE":"U","NORAD_CAT_ID":65141,"ELEMENT_SET_NO":999,"REV_AT_EPOCH":3268,"BSTAR":0.0006573061,"MEAN_MOTION_DOT":4.794e-5,"MEAN_MOTION_DDOT":0},{"OBJECT_NAME":"COSMOS 2251 DEB","OBJECT_ID":"1993-036ABY","EPOCH":"2026-03-07T11:39:36.156096","MEAN_MOTION":14.77590714,"ECCENTRICITY":0.00624728,"INCLINATION":74.0325,"RA_OF_ASC_NODE":352.3301,"ARG_OF_PERICENTER":82.6434,"MEAN_ANOMALY":278.1835,"EPHEMERIS_TYPE":0,"CLASSIFICATION_TYPE":"U","NORAD_CAT_ID":34854,"ELEMENT_SET_NO":999,"REV_AT_EPOCH":73133,"BSTAR":0.00097959483,"MEAN_MOTION_DOT":7.205e-5,"MEAN_MOTION_DDOT":0}]
